CCSDS_OMM_VERS = 2.0
CREATION_DATE  = 
ORIGINATOR     = 

OBJECT_NAME    = SL-16 R/B
OBJECT_ID      = 1993-016B
CENTER_NAME    = EARTH
REF_FRAME      = TEME
TIME_SYSTEM    = UTC
MEAN_ELEMENT_THEORY = SGP/SGP4

EPOCH          = 2026-03-02T18:47:22.301664
MEAN_MOTION    = 14.15304608
ECCENTRICITY   = .00113
INCLINATION    = 71.0056
RA_OF_ASC_NODE = 229.6875
ARG_OF_PERICENTER = 323.8063
MEAN_ANOMALY   = 36.2294

EPHEMERIS_TYPE = 0
CLASSIFICATION_TYPE = U
NORAD_CAT_ID   = 22566
ELEMENT_SET_NO = 999
REV_AT_EPOCH   = 70119
BSTAR          = .19761E-3
MEAN_MOTION_DOT = .337E-5
MEAN_MOTION_DDOT = 0

CCSDS_OMM_VERS = 2.0
CREATION_DATE  = 
ORIGINATOR     = 

OBJECT_NAME    = COSMOS 2242
OBJECT_ID      = 1993-024A
CENTER_NAME    = EARTH
REF_FRAME      = TEME
TIME_SYSTEM    = UTC
MEAN_ELEMENT_THEORY = SGP/SGP4

EPOCH          = 2026-03-02T16:22:20.690688
MEAN_MOTION    = 14.96514959
ECCENTRICITY   = .0015715
INCLINATION    = 82.5159
RA_OF_ASC_NODE = 273.4208
ARG_OF_PERICENTER = 333.9984
MEAN_ANOMALY   = 26.0447

EPHEMERIS_TYPE = 0
CLASSIFICATION_TYPE = U
NORAD_CAT_ID   = 22626
ELEMENT_SET_NO = 999
REV_AT_EPOCH   = 77934
BSTAR          = .19019E-3
MEAN_MOTION_DOT = .2191E-4
MEAN_MOTION_DDOT = 0

CCSDS_OMM_VERS = 2.0
CREATION_DATE  = 
ORIGINATOR     = 

OBJECT_NAME    = SL-16 R/B
OBJECT_ID      = 1993-059B
CENTER_NAME    = EARTH
REF_FRAME      = TEME
TIME_SYSTEM    = UTC
MEAN_ELEMENT_THEORY = SGP/SGP4

EPOCH          = 2026-03-02T15:07:57.463680
MEAN_MOTION    = 14.17231937
ECCENTRICITY   = .0018827
INCLINATION    = 70.9917
RA_OF_ASC_NODE = 26.0115
ARG_OF_PERICENTER = 226.4888
MEAN_ANOMALY   = 133.4672

EPHEMERIS_TYPE = 0
CLASSIFICATION_TYPE = U
NORAD_CAT_ID   = 22803
ELEMENT_SET_NO = 999
REV_AT_EPOCH   = 67853
BSTAR          = .69181E-4
MEAN_MOTION_DOT = .92E-6
MEAN_MOTION_DDOT = 0

CCSDS_OMM_VERS = 2.0
CREATION_DATE  = 
ORIGINATOR     = 

OBJECT_NAME    = ARIANE 40 R/B
OBJECT_ID      = 1993-061H
CENTER_NAME    = EARTH
REF_FRAME      = TEME
TIME_SYSTEM    = UTC
MEAN_ELEMENT_THEORY = SGP/SGP4

EPOCH          = 2026-03-02T18:50:53.948832
MEAN_MOTION    = 14.32856652
ECCENTRICITY   = .0009674
INCLINATION    = 98.4932
RA_OF_ASC_NODE = 130.8090
ARG_OF_PERICENTER = 307.9331
MEAN_ANOMALY   = 52.0979

EPHEMERIS_TYPE = 0
CLASSIFICATION_TYPE = U
NORAD_CAT_ID   = 22830
ELEMENT_SET_NO = 999
REV_AT_EPOCH   = 69311
BSTAR          = .10739E-3
MEAN_MOTION_DOT = .25E-5
MEAN_MOTION_DDOT = 0

CCSDS_OMM_VERS = 2.0
CREATION_DATE  = 
ORIGINATOR     = 

OBJECT_NAME    = COSMOS 2278
OBJECT_ID      = 1994-023A
CENTER_NAME    = EARTH
REF_FRAME      = TEME
TIME_SYSTEM    = UTC
MEAN_ELEMENT_THEORY = SGP/SGP4

EPOCH          = 2026-03-02T19:23:51.986976
MEAN_MOTION    = 14.14374940
ECCENTRICITY   = .0007614
INCLINATION    = 71.0540
RA_OF_ASC_NODE = 189.4927
ARG_OF_PERICENTER = 27.3073
MEAN_ANOMALY   = 332.8449

EPHEMERIS_TYPE = 0
CLASSIFICATION_TYPE = U
NORAD_CAT_ID   = 23087
ELEMENT_SET_NO = 999
REV_AT_EPOCH   = 64383
BSTAR          = .19661E-3
MEAN_MOTION_DOT = .329E-5
MEAN_MOTION_DDOT = 0

CCSDS_OMM_VERS = 2.0
CREATION_DATE  = 
ORIGINATOR     = 

OBJECT_NAME    = SL-16 R/B
OBJECT_ID      = 1994-023B
CENTER_NAME    = EARTH
REF_FRAME      = TEME
TIME_SYSTEM    = UTC
MEAN_ELEMENT_THEORY = SGP/SGP4

EPOCH          = 2026-03-02T12:06:15.217056
MEAN_MOTION    = 14.15013490
ECCENTRICITY   = .00055626
INCLINATION    = 70.9986
RA_OF_ASC_NODE = 85.9784
ARG_OF_PERICENTER = 292.6207
MEAN_ANOMALY   = 67.4327

EPHEMERIS_TYPE = 0
CLASSIFICATION_TYPE = U
NORAD_CAT_ID   = 23088
ELEMENT_SET_NO = 999
REV_AT_EPOCH   = 64507
BSTAR          = -.8193883E-5
MEAN_MOTION_DOT = -.64E-6
MEAN_MOTION_DDOT = 0

CCSDS_OMM_VERS = 2.0
CREATION_DATE  = 
ORIGINATOR     = 

OBJECT_NAME    = SL-16 R/B
OBJECT_ID      = 1994-074B
CENTER_NAME    = EARTH
REF_FRAME      = TEME
TIME_SYSTEM    = UTC
MEAN_ELEMENT_THEORY = SGP/SGP4

EPOCH          = 2026-03-02T16:51:10.015200
MEAN_MOTION    = 14.79398306
ECCENTRICITY   = .0005331
INCLINATION    = 97.7118
RA_OF_ASC_NODE = 92.8027
ARG_OF_PERICENTER = 237.3561
MEAN_ANOMALY   = 240.1306

EPHEMERIS_TYPE = 0
CLASSIFICATION_TYPE = U
NORAD_CAT_ID   = 23343
ELEMENT_SET_NO = 999
REV_AT_EPOCH   = 68621
BSTAR          = .87377E-4
MEAN_MOTION_DOT = .602E-5
MEAN_MOTION_DDOT = 0

CCSDS_OMM_VERS = 2.0
CREATION_DATE  = 
ORIGINATOR     = 

OBJECT_NAME    = SL-16 R/B
OBJECT_ID      = 1994-077B
CENTER_NAME    = EARTH
REF_FRAME      = TEME
TIME_SYSTEM    = UTC
MEAN_ELEMENT_THEORY = SGP/SGP4

EPOCH          = 2026-03-02T20:12:35.438976
MEAN_MOTION    = 14.15562544
ECCENTRICITY   = .0003469
INCLINATION    = 70.9850
RA_OF_ASC_NODE = 6.8935
ARG_OF_PERICENTER = 221.4268
MEAN_ANOMALY   = 138.6592

EPHEMERIS_TYPE = 0
CLASSIFICATION_TYPE = U
NORAD_CAT_ID   = 23405
ELEMENT_SET_NO = 999
REV_AT_EPOCH   = 61526
BSTAR          = -.1036E-3
MEAN_MOTION_DOT = -.251E-5
MEAN_MOTION_DDOT = 0

CCSDS_OMM_VERS = 2.0
CREATION_DATE  = 
ORIGINATOR     = 

OBJECT_NAME    = ARIANE 40+ R/B
OBJECT_ID      = 1995-021B
CENTER_NAME    = EARTH
REF_FRAME      = TEME
TIME_SYSTEM    = UTC
MEAN_ELEMENT_THEORY = SGP/SGP4

EPOCH          = 2026-03-02T19:22:37.099776
MEAN_MOTION    = 14.39766516
ECCENTRICITY   = .0007357
INCLINATION    = 98.4512
RA_OF_ASC_NODE = 133.3829
ARG_OF_PERICENTER = 154.7497
MEAN_ANOMALY   = 316.2603

EPHEMERIS_TYPE = 0
CLASSIFICATION_TYPE = U
NORAD_CAT_ID   = 23561
ELEMENT_SET_NO = 999
REV_AT_EPOCH   = 61825
BSTAR          = .1273E-3
MEAN_MOTION_DOT = .356E-5
MEAN_MOTION_DDOT = 0

CCSDS_OMM_VERS = 2.0
CREATION_DATE  = 
ORIGINATOR     = 

OBJECT_NAME    = SL-16 R/B
OBJECT_ID      = 1995-058B
CENTER_NAME    = EARTH
REF_FRAME      = TEME
TIME_SYSTEM    = UTC
MEAN_ELEMENT_THEORY = SGP/SGP4

EPOCH          = 2026-03-02T18:40:25.073472
MEAN_MOTION    = 14.15492688
ECCENTRICITY   = .0011039
INCLINATION    = 71.0209
RA_OF_ASC_NODE = 194.7644
ARG_OF_PERICENTER = 138.0048
MEAN_ANOMALY   = 222.1923

EPHEMERIS_TYPE = 0
CLASSIFICATION_TYPE = U
NORAD_CAT_ID   = 23705
ELEMENT_SET_NO = 999
REV_AT_EPOCH   = 56687
BSTAR          = -.12568E-4
MEAN_MOTION_DOT = -.72E-6
MEAN_MOTION_DDOT = 0

CCSDS_OMM_VERS = 2.0
CREATION_DATE  = 
ORIGINATOR     = 

OBJECT_NAME    = SL-16 R/B
OBJECT_ID      = 1996-051B
CENTER_NAME    = EARTH
REF_FRAME      = TEME
TIME_SYSTEM    = UTC
MEAN_ELEMENT_THEORY = SGP/SGP4

EPOCH          = 2026-03-02T19:12:50.821344
MEAN_MOTION    = 14.12413535
ECCENTRICITY   = .0015707
INCLINATION    = 70.7594
RA_OF_ASC_NODE = 189.8191
ARG_OF_PERICENTER = 158.1581
MEAN_ANOMALY   = 202.0211

EPHEMERIS_TYPE = 0
CLASSIFICATION_TYPE = U
NORAD_CAT_ID   = 24298
ELEMENT_SET_NO = 999
REV_AT_EPOCH   = 52067
BSTAR          = .70493E-4
MEAN_MOTION_DOT = .81E-6
MEAN_MOTION_DDOT = 0

CCSDS_OMM_VERS = 2.0
CREATION_DATE  = 
ORIGINATOR     = 

OBJECT_NAME    = ORBVIEW 2 (SEASTAR)
OBJECT_ID      = 1997-037A
CENTER_NAME    = EARTH
REF_FRAME      = TEME
TIME_SYSTEM    = UTC
MEAN_ELEMENT_THEORY = SGP/SGP4

EPOCH          = 2026-03-02T10:44:38.729472
MEAN_MOTION    = 14.35488491
ECCENTRICITY   = .00031888
INCLINATION    = 98.8553
RA_OF_ASC_NODE = 225.5681
ARG_OF_PERICENTER = 86.4858
MEAN_ANOMALY   = 273.6691

EPHEMERIS_TYPE = 0
CLASSIFICATION_TYPE = U
NORAD_CAT_ID   = 24883
ELEMENT_SET_NO = 999
REV_AT_EPOCH   = 50743
BSTAR          = .16067235E-3
MEAN_MOTION_DOT = .415E-5
MEAN_MOTION_DDOT = 0

